[{"OBJECT_NAME":"OBJECT A","OBJECT_ID":"2023-069A","EPOCH":"2026-03-09T23:23:38.832000","MEAN_MOTION":15.439714,"ECCENTRICITY":0.00293771,"INCLINATION":40.9954,"RA_OF_ASC_NODE":47.9643,"ARG_OF_PERICENTER":310.3432,"MEAN_ANOMALY":49.4829,"EPHEMERIS_TYPE":0,"CLASSIFICATION_TYPE":"U","NORAD_CAT_ID":56731,"ELEMENT_SET_NO":999,"REV_AT_EPOCH":15774,"BSTAR":0.00033298107,"MEAN_MOTION_DOT":0.00015557,"MEAN_MOTION_DDOT":0},{"OBJECT_NAME":"STARLINK-36597","OBJECT_ID":"2026-018AA","EPOCH":"2026-03-09T22:00:01.999584","MEAN_MOTION":15.6227294,"ECCENTRICITY":0.00019632,"INCLINATION":97.2837,"RA_OF_ASC_NODE":134.8157,"ARG_OF_PERICENTER":78.0826,"MEAN_ANOMALY":100.8672,"EPHEMERIS_TYPE":0,"CLASSIFICATION_TYPE":"U","NORAD_CAT_ID":67613,"ELEMENT_SET_NO":999,"REV_AT_EPOCH":604,"BSTAR":-0.025061707,"MEAN_MOTION_DOT":-0.01947068,"MEAN_MOTION_DDOT":0}]
